[{"OBJECT_NAME":"PRETTY","OBJECT_ID":"2023-155H","EPOCH":"2026-03-09T19:03:45.928512","MEAN_MOTION":15.22332126,"ECCENTRICITY":0.00021064,"INCLINATION":97.5727,"RA_OF_ASC_NODE":149.5557,"ARG_OF_PERICENTER":60.6464,"MEAN_ANOMALY":299.4982,"EPHEMERIS_TYPE":0,"CLASSIFICATION_TYPE":"U","NORAD_CAT_ID":58023,"ELEMENT_SET_NO":999,"REV_AT_EPOCH":13322,"BSTAR":0.00045567627,"MEAN_MOTION_DOT":0.00010441,"MEAN_MOTION_DDOT":0},{"OBJECT_NAME":"CZ-2C R\/B","OBJECT_ID":"2024-218A","EPOCH":"2026-03-09T22:16:31.791072","MEAN_MOTION":15.22960743,"ECCENTRICITY":0.00453409,"INCLINATION":97.5416,"RA_OF_ASC_NODE":83.973,"ARG_OF_PERICENTER":359.5317,"MEAN_ANOMALY":0.5869,"EPHEMERIS_TYPE":0,"CLASSIFICATION_TYPE":"U","NORAD_CAT_ID":62078,"ELEMENT_SET_NO":999,"REV_AT_EPOCH":7134,"BSTAR":0.00039378379,"MEAN_MOTION_DOT":9.445e-5,"MEAN_MOTION_DDOT":0}]
